ORBCOMM FM37 [-]        
1 33064U 08031E   23342.31358338  .00001401  00000+0  23340-3 0  9996
2 33064  48.4399 101.7781 0005640 160.5611 220.5207 14.75537804831706
ORBCOMM FM40 [-]        
1 33065U 08031F   23341.71624028  .00001876  00000+0  29468-3 0  9995
2 33065  48.4423  95.3522 0007083 165.6169 336.8067 14.76664836831637
VESSELSAT 1 [-]         
1 37840U 11058C   23341.99395137  .00000372  00000+0  58627-4 0  9999
2 37840  19.9608 224.7286 0013718 178.4547 181.5901 14.11091717627501
ORBCOMM FM109 [+]       
1 40086U 14040A   23342.48817953  .00000864  00000+0  23135-3 0  9990
2 40086  47.0026 121.1764 0002634 266.6159  93.4425 14.56153022499874
ORBCOMM FM107 [+]       
1 40087U 14040B   23342.45358865  .00000796  00000+0  21623-3 0  9994
2 40087  47.0046 122.2784 0002156 237.9975 122.0701 14.56146290499940
ORBCOMM FM106 [-]       
1 40088U 14040C   23342.37014703  .00000910  00000+0  19606-3 0  9992
2 40088  47.0619 347.0700 0018480   1.9860 358.1100 14.66327755501678
ORBCOMM FM111 [-]       
1 40089U 14040D   23341.88524165  .00001831  00000+0  26136-3 0  9995
2 40089  47.0046 268.3427 0032821  54.3293 306.0650 14.80549186507499
ORBCOMM FM104 [-]       
1 40090U 14040E   23342.47653044  .00000539  00000+0  16341-3 0  9993
2 40090  47.0039 149.4000 0017484 185.6039 174.4651 14.54685723499513
